STARLINK-31366          
1 59403U 24064F   26068.02308473 -.00003679  00000+0 -12422-3 0  9996
2 59403  42.9984  59.9515 0000169  94.4170 265.6700 15.27585402109122
FLOCK 4G-29             
1 62642U 25009AK  26068.81464037  .00011147  00000+0  41831-3 0  9994
2 62642  97.4058 151.3683 0001366 288.0502  72.0588 15.27382318 63721
